[{"OBJECT_NAME":"STARLINK-31983","OBJECT_ID":"2024-150V","EPOCH":"2026-03-09T21:29:53.218176","MEAN_MOTION":15.30186836,"ECCENTRICITY":8.411e-5,"INCLINATION":53.1607,"RA_OF_ASC_NODE":306.0169,"ARG_OF_PERICENTER":93.4733,"MEAN_ANOMALY":266.6363,"EPHEMERIS_TYPE":0,"CLASSIFICATION_TYPE":"U","NORAD_CAT_ID":60602,"ELEMENT_SET_NO":999,"REV_AT_EPOCH":8799,"BSTAR":2.6066202e-5,"MEAN_MOTION_DOT":4.13e-6,"MEAN_MOTION_DDOT":0},{"OBJECT_NAME":"COSMOS 1975","OBJECT_ID":"1988-093A","EPOCH":"2026-03-09T14:15:08.474112","MEAN_MOTION":15.28069249,"ECCENTRICITY":0.0012117,"INCLINATION":82.5181,"RA_OF_ASC_NODE":117.7814,"ARG_OF_PERICENTER":163.8427,"MEAN_ANOMALY":196.3201,"EPHEMERIS_TYPE":0,"CLASSIFICATION_TYPE":"U","NORAD_CAT_ID":19573,"ELEMENT_SET_NO":999,"REV_AT_EPOCH":1939,"BSTAR":0.0002787,"MEAN_MOTION_DOT":7.676e-5,"MEAN_MOTION_DDOT":0}]
